[
    {
        "Altitude(m)": 622200.0774184555,
        "Argument of Periapsis(deg)": 0.0,
        "Eccentricity": 0.0,
        "Inclination(deg)": 60.0,
        "Latitude(deg)": -52.16245602807867,
        "Longitude(deg)": 117.36071075077024,
        "Mean Anomaly(deg)": -65.45450000000002,
        "RAAN(deg)": 265.0,
        "Satellite Name": "Test1 1184",
        "Satellite Number": 1184,
        "Semi-Major Axis(m)": 6980739.136638005,
        "Time(s)": 0
    },
    {
        "Altitude(m)": 622058.2452361351,
        "Argument of Periapsis(deg)": 0.00010418945913296404,
        "Eccentricity": 0.0,
        "Inclination(deg)": 60.0,
        "Latitude(deg)": -51.7992061195486,
        "Longitude(deg)": 118.12876778679167,
        "Mean Anomaly(deg)": -64.83439385453818,
        "RAAN(deg)": 264.99957995086027,
        "Satellite Name": "Test1 1184",
        "Satellite Number": 1184,
        "Semi-Major Axis(m)": 6980739.136638005,
        "Time(s)": 10
    },
    {
        "Altitude(m)": 621913.6797736239,
        "Argument of Periapsis(deg)": 0.0002083789182659281,
        "Eccentricity": 0.0,
        "Inclination(deg)": 60.0,
        "Latitude(deg)": -51.43044464114859,
        "Longitude(deg)": 118.88384612222791,
        "Mean Anomaly(deg)": -64.21428770907633,
        "RAAN(deg)": 264.99915990172053,
        "Satellite Name": "Test1 1184",
        "Satellite Number": 1184,
        "Semi-Major Axis(m)": 6980739.136638005,
        "Time(s)": 20
    },
    {
        "Altitude(m)": 621766.437470258,
        "Argument of Periapsis(deg)": 0.00031256837739889213,
        "Eccentricity": 0.0,
        "Inclination(deg)": 60.0,
        "Latitude(deg)": -51.056328712870894,
        "Longitude(deg)": 119.6261354519589,
        "Mean Anomaly(deg)": -63.59418156361453,
        "RAAN(deg)": 264.9987398525808,
        "Satellite Name": "Test1 1184",
        "Satellite Number": 1184,
        "Semi-Major Axis(m)": 6980739.136638005,
        "Time(s)": 30
    },
    {
        "Altitude(m)": 621616.5757817723,
        "Argument of Periapsis(deg)": 0.0004167578365318562,
        "Eccentricity": 0.0,
        "Inclination(deg)": 60.0,
        "Latitude(deg)": -50.67701176421679,
        "Longitude(deg)": 120.3558332363435,
        "Mean Anomaly(deg)": -62.974075418152665,
        "RAAN(deg)": 264.99831980344106,
        "Satellite Name": "Test1 1184",
        "Satellite Number": 1184,
        "Semi-Major Axis(m)": 6980739.136638005,
        "Time(s)": 40
    },
    {
        "Altitude(m)": 621464.1531557101,
        "Argument of Periapsis(deg)": 0.0005209472956648203,
        "Eccentricity": 0.0,
        "Inclination(deg)": 60.0,
        "Latitude(deg)": -50.292643507191045,
        "Longitude(deg)": 121.07314265139448,
        "Mean Anomaly(deg)": -62.353969272690826,
        "RAAN(deg)": 264.99789975430133,
        "Satellite Name": "Test1 1184",
        "Satellite Number": 1184,
        "Semi-Major Axis(m)": 6980739.136638005,
        "Time(s)": 50
    },
    {
        "Altitude(m)": 621309.229006357,
        "Argument of Periapsis(deg)": 0.0006251367547977843,
        "Eccentricity": 0.0,
        "Inclination(deg)": 60.0,
        "Latitude(deg)": -49.90336992385077,
        "Longitude(deg)": 121.77827212116993,
        "Mean Anomaly(deg)": -61.73386312722897,
        "RAAN(deg)": 264.99747970516154,
        "Satellite Name": "Test1 1184",
        "Satellite Number": 1184,
        "Semi-Major Axis(m)": 6980739.136638005,
        "Time(s)": 60
    },
    {
        "Altitude(m)": 621151.8636892776,
        "Argument of Periapsis(deg)": 0.0007293262139307483,
        "Eccentricity": 0.0,
        "Inclination(deg)": 60.0,
        "Latitude(deg)": -49.50933326700643,
        "Longitude(deg)": 122.47143491810506,
        "Mean Anomaly(deg)": -61.11375698176716,
        "RAAN(deg)": 264.99705965602186,
        "Satellite Name": "Test1 1184",
        "Satellite Number": 1184,
        "Semi-Major Axis(m)": 6980739.136638005,
        "Time(s)": 70
    },
    {
        "Altitude(m)": 620992.1184753929,
        "Argument of Periapsis(deg)": 0.0008335156730637124,
        "Eccentricity": 0.0,
        "Inclination(deg)": 60.0,
        "Latitude(deg)": -49.110672072739895,
        "Longitude(deg)": 123.15284731659158,
        "Mean Anomaly(deg)": -60.49365083630531,
        "RAAN(deg)": 264.99663960688207,
        "Satellite Name": "Test1 1184",
        "Satellite Number": 1184,
        "Semi-Major Axis(m)": 6980739.136638005,
        "Time(s)": 80
    },
    {
        "Altitude(m)": 620830.055524672,
        "Argument of Periapsis(deg)": 0.0009377051321966765,
        "Eccentricity": 0.0,
        "Inclination(deg)": 60.0,
        "Latitude(deg)": -48.70752118348331,
        "Longitude(deg)": 123.82272832338973,
        "Mean Anomaly(deg)": -59.87354469084345,
        "RAAN(deg)": 264.9962195577423,
        "Satellite Name": "Test1 1184",
        "Satellite Number": 1184,
        "Semi-Major Axis(m)": 6980739.136638005,
        "Time(s)": 90
    },
    {
        "Altitude(m)": 620665.7378594183,
        "Argument of Periapsis(deg)": 0.0010418945913296407,
        "Eccentricity": 0.0,
        "Inclination(deg)": 60.0,
        "Latitude(deg)": -48.30001178047279,
        "Longitude(deg)": 124.48129946958481,
        "Mean Anomaly(deg)": -59.253438545381606,
        "RAAN(deg)": 264.99579950860254,
        "Satellite Name": "Test1 1184",
        "Satellite Number": 1184,
        "Semi-Major Axis(m)": 6980739.136638005,
        "Time(s)": 100
    },
    {
        "Altitude(m)": 620499.2293371352,
        "Argument of Periapsis(deg)": 0.0011460840504626045,
        "Eccentricity": 0.0,
        "Inclination(deg)": 60.0,
        "Latitude(deg)": -47.888271424470105,
        "Longitude(deg)": 125.12878314860204,
        "Mean Anomaly(deg)": -58.6333323999198,
        "RAAN(deg)": 264.9953794594628,
        "Satellite Name": "Test1 1184",
        "Satellite Number": 1184,
        "Semi-Major Axis(m)": 6980739.136638005,
        "Time(s)": 110
    },
    {
        "Altitude(m)": 620330.594623045,
        "Argument of Periapsis(deg)": 0.0012502735095955685,
        "Eccentricity": 0.0,
        "Inclination(deg)": 60.0,
        "Latitude(deg)": -47.47242410372234,
        "Longitude(deg)": 125.7654025232643,
        "Mean Anomaly(deg)": -58.01322625445795,
        "RAAN(deg)": 264.9949594103231,
        "Satellite Name": "Test1 1184",
        "Satellite Number": 1184,
        "Semi-Major Axis(m)": 6980739.136638005,
        "Time(s)": 120
    },
    {
        "Altitude(m)": 620159.8991622181,
        "Argument of Periapsis(deg)": 0.0013544629687285324,
        "Eccentricity": 0.0,
        "Inclination(deg)": 60.0,
        "Latitude(deg)": -47.05259028820459,
        "Longitude(deg)": 126.3913814861751,
        "Mean Anomaly(deg)": -57.3931201089962,
        "RAAN(deg)": 264.99453936118334,
        "Satellite Name": "Test1 1184",
        "Satellite Number": 1184,
        "Semi-Major Axis(m)": 6980739.136638005,
        "Time(s)": 130
    },
    {
        "Altitude(m)": 619987.2091513437,
        "Argument of Periapsis(deg)": 0.0014586524278614966,
        "Eccentricity": 0.0,
        "Inclination(deg)": 60.0,
        "Latitude(deg)": -46.62888698926106,
        "Longitude(deg)": 127.00694315766097,
        "Mean Anomaly(deg)": -56.773013963534346,
        "RAAN(deg)": 264.9941193120436,
        "Satellite Name": "Test1 1184",
        "Satellite Number": 1184,
        "Semi-Major Axis(m)": 6980739.136638005,
        "Time(s)": 140
    },
    {
        "Altitude(m)": 619812.5915101683,
        "Argument of Periapsis(deg)": 0.0015628418869944607,
        "Eccentricity": 0.0,
        "Inclination(deg)": 60.0,
        "Latitude(deg)": -46.20142782383787,
        "Longitude(deg)": 127.61230994410421,
        "Mean Anomaly(deg)": -56.15290781807254,
        "RAAN(deg)": 264.9936992629039,
        "Satellite Name": "Test1 1184",
        "Satellite Number": 1184,
        "Semi-Major Axis(m)": 6980739.136638005,
        "Time(s)": 150
    },
    {
        "Altitude(m)": 619636.1138525696,
        "Argument of Periapsis(deg)": 0.0016670313461274247,
        "Eccentricity": 0.0,
        "Inclination(deg)": 60.0,
        "Latitude(deg)": -45.77032308256264,
        "Longitude(deg)": 128.2077036409103,
        "Mean Anomaly(deg)": -55.53280167261069,
        "RAAN(deg)": 264.99327921376414,
        "Satellite Name": "Test1 1184",
        "Satellite Number": 1184,
        "Semi-Major Axis(m)": 6980739.136638005,
        "Time(s)": 160
    },
    {
        "Altitude(m)": 619457.8444573451,
        "Argument of Periapsis(deg)": 0.0017712208052603888,
        "Eccentricity": 0.0,
        "Inclination(deg)": 60.0,
        "Latitude(deg)": -45.33567980099407,
        "Longitude(deg)": 128.79334406439028,
        "Mean Anomaly(deg)": -54.91269552714894,
        "RAAN(deg)": 264.99285916462435,
        "Satellite Name": "Test1 1184",
        "Satellite Number": 1184,
        "Semi-Major Axis(m)": 6980739.136638005,
        "Time(s)": 170
    },
    {
        "Altitude(m)": 619277.852238639,
        "Argument of Periapsis(deg)": 0.001875410264393353,
        "Eccentricity": 0.0,
        "Inclination(deg)": 60.0,
        "Latitude(deg)": -44.89760183342756,
        "Longitude(deg)": 129.36944923552304,
        "Mean Anomaly(deg)": -54.29258938168709,
        "RAAN(deg)": 264.9924391154846,
        "Satellite Name": "Test1 1184",
        "Satellite Number": 1184,
        "Semi-Major Axis(m)": 6980739.136638005,
        "Time(s)": 180
    },
    {
        "Altitude(m)": 619096.206716115,
        "Argument of Periapsis(deg)": 0.0019795997235263173,
        "Eccentricity": 0.0,
        "Inclination(deg)": 60.0,
        "Latitude(deg)": -44.45618992870104,
        "Longitude(deg)": 129.9362356000268,
        "Mean Anomaly(deg)": -53.67248323622528,
        "RAAN(deg)": 264.9920190663449,
        "Satellite Name": "Test1 1184",
        "Satellite Number": 1184,
        "Semi-Major Axis(m)": 6980739.136638005,
        "Time(s)": 190
    }
]